[{"OBJECT_NAME":"XW-2E","OBJECT_ID":"2015-049L","EPOCH":"2022-08-19T04:03:26.108352","MEAN_MOTION":15.24452293,"ECCENTRICITY":0.0013793,"INCLINATION":97.4656,"RA_OF_ASC_NODE":238.8157,"ARG_OF_PERICENTER":112.0516,"MEAN_ANOMALY":313.1566,"EPHEMERIS_TYPE":0,"CLASSIFICATION_TYPE":"U","NORAD_CAT_ID":40909,"ELEMENT_SET_NO":999,"REV_AT_EPOCH":38296,"BSTAR":0.00030977,"MEAN_MOTION_DOT":7.553e-5,"MEAN_MOTION_DDOT":0},{"OBJECT_NAME":"XW-2F","OBJECT_ID":"2015-049M","EPOCH":"2022-08-19T02:52:50.889216","MEAN_MOTION":15.23915978,"ECCENTRICITY":0.0014623,"INCLINATION":97.4726,"RA_OF_ASC_NODE":237.9163,"ARG_OF_PERICENTER":112.6554,"MEAN_ANOMALY":320.0613,"EPHEMERIS_TYPE":0,"CLASSIFICATION_TYPE":"U","NORAD_CAT_ID":40910,"ELEMENT_SET_NO":999,"REV_AT_EPOCH":38272,"BSTAR":0.00031337,"MEAN_MOTION_DOT":7.522e-5,"MEAN_MOTION_DDOT":0},{"OBJECT_NAME":"XW-2B","OBJECT_ID":"2015-049N","EPOCH":"2022-08-19T05:58:57.079200","MEAN_MOTION":15.20198551,"ECCENTRICITY":0.0014243,"INCLINATION":97.4924,"RA_OF_ASC_NODE":234.8044,"ARG_OF_PERICENTER":131.6922,"MEAN_ANOMALY":290.523,"EPHEMERIS_TYPE":0,"CLASSIFICATION_TYPE":"U","NORAD_CAT_ID":40911,"ELEMENT_SET_NO":999,"REV_AT_EPOCH":38239,"BSTAR":0.00021958,"MEAN_MOTION_DOT":4.699e-5,"MEAN_MOTION_DDOT":0},{"OBJECT_NAME":"KAITUO 1B","OBJECT_ID":"2015-049P","EPOCH":"2022-08-19T03:00:28.139616","MEAN_MOTION":15.27160745,"ECCENTRICITY":0.0014639,"INCLINATION":97.4366,"RA_OF_ASC_NODE":242.269,"ARG_OF_PERICENTER":83.1364,"MEAN_ANOMALY":349.9295,"EPHEMERIS_TYPE":0,"CLASSIFICATION_TYPE":"U","NORAD_CAT_ID":40912,"ELEMENT_SET_NO":999,"REV_AT_EPOCH":38331,"BSTAR":0.00033977,"MEAN_MOTION_DOT":9.003e-5,"MEAN_MOTION_DDOT":0},{"OBJECT_NAME":"TIANWANG 1A (TW-1A)","OBJECT_ID":"2015-051D","EPOCH":"2022-08-19T03:09:36.436608","MEAN_MOTION":15.64569051,"ECCENTRICITY":0.0008596,"INCLINATION":97.0351,"RA_OF_ASC_NODE":253.4284,"ARG_OF_PERICENTER":134.8603,"MEAN_ANOMALY":296.2396,"EPHEMERIS_TYPE":0,"CLASSIFICATION_TYPE":"U","NORAD_CAT_ID":40928,"ELEMENT_SET_NO":999,"REV_AT_EPOCH":38802,"BSTAR":0.0004611,"MEAN_MOTION_DOT":0.00044575,"MEAN_MOTION_DDOT":0},{"OBJECT_NAME":"LAPAN-A2","OBJECT_ID":"2015-052B","EPOCH":"2022-08-19T01:17:30.268320","MEAN_MOTION":14.76842418,"ECCENTRICITY":0.0013718,"INCLINATION":6.0031,"RA_OF_ASC_NODE":82.5439,"ARG_OF_PERICENTER":335.686,"MEAN_ANOMALY":24.2627,"EPHEMERIS_TYPE":0,"CLASSIFICATION_TYPE":"U","NORAD_CAT_ID":40931,"ELEMENT_SET_NO":999,"REV_AT_EPOCH":37261,"BSTAR":-1.2913e-5,"MEAN_MOTION_DOT":5.48e-6,"MEAN_MOTION_DDOT":0},{"OBJECT_NAME":"E-ST@R-II","OBJECT_ID":"2016-025D","EPOCH":"2022-08-19T00:11:29.649120","MEAN_MOTION":15.14778854,"ECCENTRICITY":0.0142689,"INCLINATION":98.1923,"RA_OF_ASC_NODE":40.8679,"ARG_OF_PERICENTER":57.2203,"MEAN_ANOMALY":304.2736,"EPHEMERIS_TYPE":0,"CLASSIFICATION_TYPE":"U","NORAD_CAT_ID":41459,"ELEMENT_SET_NO":999,"REV_AT_EPOCH":34696,"BSTAR":0.00036901,"MEAN_MOTION_DOT":8.771e-5,"MEAN_MOTION_DDOT":0},{"OBJECT_NAME":"AAUSAT 4","OBJECT_ID":"2016-025E","EPOCH":"2022-08-19T01:28:27.159744","MEAN_MOTION":15.2148976,"ECCENTRICITY":0.0121144,"INCLINATION":98.1828,"RA_OF_ASC_NODE":47.7269,"ARG_OF_PERICENTER":31.0407,"MEAN_ANOMALY":329.8009,"EPHEMERIS_TYPE":0,"CLASSIFICATION_TYPE":"U","NORAD_CAT_ID":41460,"ELEMENT_SET_NO":999,"REV_AT_EPOCH":34745,"BSTAR":0.00048351,"MEAN_MOTION_DOT":0.00013226,"MEAN_MOTION_DDOT":0},{"OBJECT_NAME":"NUSAT-1 (FRESCO)","OBJECT_ID":"2016-033B","EPOCH":"2022-08-19T04:53:17.810304","MEAN_MOTION":15.35957549,"ECCENTRICITY":0.0011491,"INCLINATION":97.39,"RA_OF_ASC_NODE":329.0692,"ARG_OF_PERICENTER":146.8815,"MEAN_ANOMALY":271.5125,"EPHEMERIS_TYPE":0,"CLASSIFICATION_TYPE":"U","NORAD_CAT_ID":41557,"ELEMENT_SET_NO":999,"REV_AT_EPOCH":34701,"BSTAR":0.00031145,"MEAN_MOTION_DOT":0.00010847,"MEAN_MOTION_DDOT":0},{"OBJECT_NAME":"BEESAT-4","OBJECT_ID":"2016-040W","EPOCH":"2022-08-18T21:22:10.897824","MEAN_MOTION":15.32569189,"ECCENTRICITY":0.0007618,"INCLINATION":97.2119,"RA_OF_ASC_NODE":279.8972,"ARG_OF_PERICENTER":246.6027,"MEAN_ANOMALY":113.4415,"EPHEMERIS_TYPE":0,"CLASSIFICATION_TYPE":"U","NORAD_CAT_ID":41619,"ELEMENT_SET_NO":999,"REV_AT_EPOCH":33028,"BSTAR":0.0005734,"MEAN_MOTION_DOT":0.00017995,"MEAN_MOTION_DDOT":0},{"OBJECT_NAME":"CAS-2T & KS-1Q","OBJECT_ID":"2016-066G","EPOCH":"2022-08-18T20:51:30.346272","MEAN_MOTION":14.38695198,"ECCENTRICITY":0.0363858,"INCLINATION":98.5467,"RA_OF_ASC_NODE":295.4579,"ARG_OF_PERICENTER":23.354,"MEAN_ANOMALY":338.3716,"EPHEMERIS_TYPE":0,"CLASSIFICATION_TYPE":"U","NORAD_CAT_ID":41847,"ELEMENT_SET_NO":999,"REV_AT_EPOCH":30332,"BSTAR":0.00010599,"MEAN_MOTION_DOT":6.44e-6,"MEAN_MOTION_DDOT":0},{"OBJECT_NAME":"NAYIF-1 (EO-88)","OBJECT_ID":"2017-008BX","EPOCH":"2022-08-18T14:30:48.412800","MEAN_MOTION":15.36321571,"ECCENTRICITY":0.0005256,"INCLINATION":97.264,"RA_OF_ASC_NODE":295.875,"ARG_OF_PERICENTER":41.4206,"MEAN_ANOMALY":318.7436,"EPHEMERIS_TYPE":0,"CLASSIFICATION_TYPE":"U","NORAD_CAT_ID":42017,"ELEMENT_SET_NO":999,"REV_AT_EPOCH":30661,"BSTAR":0.00050509,"MEAN_MOTION_DOT":0.00017836,"MEAN_MOTION_DDOT":0},{"OBJECT_NAME":"ZHUHAI-1 02 (CAS-4B)","OBJECT_ID":"2017-034B","EPOCH":"2022-08-19T04:41:35.583936","MEAN_MOTION":15.12274449,"ECCENTRICITY":0.0010481,"INCLINATION":43.0186,"RA_OF_ASC_NODE":346.7667,"ARG_OF_PERICENTER":320.7059,"MEAN_ANOMALY":109.0578,"EPHEMERIS_TYPE":0,"CLASSIFICATION_TYPE":"U","NORAD_CAT_ID":42759,"ELEMENT_SET_NO":999,"REV_AT_EPOCH":28585,"BSTAR":0.00018132,"MEAN_MOTION_DOT":2.971e-5,"MEAN_MOTION_DDOT":0},{"OBJECT_NAME":"ZHUHAI-1 01 (CAS-4A)","OBJECT_ID":"2017-034D","EPOCH":"2022-08-19T01:56:54.000384","MEAN_MOTION":15.12361217,"ECCENTRICITY":0.0010797,"INCLINATION":43.0188,"RA_OF_ASC_NODE":346.1382,"ARG_OF_PERICENTER":321.5243,"MEAN_ANOMALY":29.5605,"EPHEMERIS_TYPE":0,"CLASSIFICATION_TYPE":"U","NORAD_CAT_ID":42761,"ELEMENT_SET_NO":999,"REV_AT_EPOCH":28583,"BSTAR":0.00019078,"MEAN_MOTION_DOT":3.146e-5,"MEAN_MOTION_DDOT":0},{"OBJECT_NAME":"MAX VALIER SAT","OBJECT_ID":"2017-036P","EPOCH":"2022-08-18T19:43:30.757728","MEAN_MOTION":15.27835919,"ECCENTRICITY":0.0012605,"INCLINATION":97.2009,"RA_OF_ASC_NODE":269.799,"ARG_OF_PERICENTER":103.9068,"MEAN_ANOMALY":256.3575,"EPHEMERIS_TYPE":0,"CLASSIFICATION_TYPE":"U","NORAD_CAT_ID":42778,"ELEMENT_SET_NO":999,"REV_AT_EPOCH":28642,"BSTAR":0.00036158,"MEAN_MOTION_DOT":9.782e-5,"MEAN_MOTION_DDOT":0},{"OBJECT_NAME":"RADFXSAT (FOX-1B)","OBJECT_ID":"2017-073E","EPOCH":"2022-08-18T15:22:24.096288","MEAN_MOTION":14.81820226,"ECCENTRICITY":0.0246963,"INCLINATION":97.6662,"RA_OF_ASC_NODE":122.2795,"ARG_OF_PERICENTER":344.5396,"MEAN_ANOMALY":14.8366,"EPHEMERIS_TYPE":0,"CLASSIFICATION_TYPE":"U","NORAD_CAT_ID":43017,"ELEMENT_SET_NO":999,"REV_AT_EPOCH":25632,"BSTAR":0.00038009,"MEAN_MOTION_DOT":5.056e-5,"MEAN_MOTION_DDOT":0},{"OBJECT_NAME":"FOX-1D (AO-92)","OBJECT_ID":"2018-004AC","EPOCH":"2022-08-18T10:16:13.875168","MEAN_MOTION":15.30373893,"ECCENTRICITY":0.0008743,"INCLINATION":97.3647,"RA_OF_ASC_NODE":305.058,"ARG_OF_PERICENTER":134.9183,"MEAN_ANOMALY":225.2768,"EPHEMERIS_TYPE":0,"CLASSIFICATION_TYPE":"U","NORAD_CAT_ID":43137,"ELEMENT_SET_NO":999,"REV_AT_EPOCH":25581,"BSTAR":0.00042689,"MEAN_MOTION_DOT":0.00012486,"MEAN_MOTION_DDOT":0}]